OBJECT_NAME,OBJECT_ID,EPOCH,MEAN_MOTION,ECCENTRICITY,INCLINATION,RA_OF_ASC_NODE,ARG_OF_PERICENTER,MEAN_ANOMALY,EPHEMERIS_TYPE,CLASSIFICATION_TYPE,NORAD_CAT_ID,ELEMENT_SET_NO,REV_AT_EPOCH,BSTAR,MEAN_MOTION_DOT,MEAN_MOTION_DDOT
OSCAR 7 (AO-7),1974-089B,2026-07-13T21:19:03.180864,12.53698534,.0012657,101.9905,208.4131,80.7682,39.3468,0,U,7530,999,36386,.11201E-3,-.28E-6,0
PHASE 3B (AO-10),1983-058B,2026-07-13T02:29:46.528800,2.05872336,.60022234,25.9345,215.2934,122.7887,309.2966,0,U,14129,999,29602,0,-.187E-5,0
UOSAT 2 (UO-11),1984-021B,2026-07-13T20:49:13.799712,14.90847126,.0009198,97.8075,160.1477,95.1181,265.1087,0,U,14781,999,26110,.75115E-4,.684E-5,0
LUSAT (LO-19),1990-005G,2026-07-13T14:58:54.388704,14.34130464,.0012493,98.8848,217.1575,125.7335,234.5012,0,U,20442,999,90618,.31846E-4,.43E-6,0
EYESAT A (AO-27),1993-061C,2026-07-13T18:44:06.935712,14.30948835,.0008838,98.6869,262.1829,29.8148,330.3536,0,U,22825,999,71080,.31841E-4,.39E-6,0
ITAMSAT (IO-26),1993-061D,2026-07-13T18:03:02.310048,14.31376405,.0009048,98.6816,262.0745,13.5433,346.5991,0,U,22826,999,71111,.29428E-4,.33E-6,0
RADIO ROSTO (RS15),1994-085A,2026-07-13T19:28:24.660192,11.27583533,.0156869,64.8153,260.1587,358.9629,1.0949,0,U,23439,999,29890,.11302E-3,-.39E-6,0
JAS-2 (FO-29),1996-046B,2026-07-13T13:22:31.983168,13.53275527,.0350433,98.5220,39.8146,28.1834,333.7792,0,U,24278,999,47673,.55297E-4,.2E-6,0
TECHSAT 1B (GO-32),1998-043D,2026-07-13T21:31:55.354080,14.24433207,.0002155,99.0084,188.3313,116.5824,243.5575,0,U,25397,999,45513,.2618E-4,.14E-6,0
ISS (ZARYA),1998-067A,2026-07-13T18:23:41.212608,15.49001429,.0006711,51.6307,168.5527,292.2587,67.7689,0,U,25544,999,57587,.80956E-4,.4013E-4,0
PCSAT (NO-44),2001-043C,2026-07-13T16:48:41.459904,14.31964661,.0005934,67.0493,175.6955,266.5322,93.5101,0,U,26931,999,29424,.36493E-4,.15E-6,0
SAUDISAT 1C (SO-50),2002-058C,2026-07-13T18:58:26.779872,14.83096814,.0074574,64.5517,46.6715,257.5378,101.7377,0,U,27607,999,26840,.62101E-4,.373E-5,0
CUTE-1 (CO-55),2003-031E,2026-07-13T10:48:24.576480,14.24350896,.00108034,98.6742,202.6793,107.1223,253.1140,0,U,27844,999,19541,.8684817E-4,.157E-5,0
CUBESAT XI-IV (CO-57),2003-031J,2026-07-13T12:32:00.136320,14.23634003,.0010486,98.6773,202.4416,123.7879,236.4299,0,U,27848,999,19512,.7551E-4,.129E-5,0
MOZHAETS 4 (RS22),2003-042A,2026-07-13T20:14:47.690592,14.73514730,.001111,98.3472,19.9572,177.4266,307.7969,0,U,27939,999,21947,.17128E-3,.106E-4,0
CUBESAT XI-V,2005-043F,2026-07-13T10:12:39.204000,14.72699773,.00151946,98.3010,350.6030,120.4468,239.8242,0,U,28895,999,10561,.12096734E-3,.72E-5,0
CUTE-1.7+APD II (CO-65),2008-021C,2026-07-13T21:29:22.846848,15.09693670,.0007148,97.8288,176.8764,304.7170,55.3385,0,U,32785,999,98922,.20405E-3,.3221E-4,0
SEEDS II (CO-66),2008-021J,2026-07-13T12:03:43.890048,15.33629018,.00028857,97.7522,193.6748,159.9785,200.1570,0,U,32791,999,99132,.32807645E-3,.10586E-3,0
YUBILEINY (RS30),2008-025A,2026-07-13T21:32:37.885344,12.43180743,.0018588,82.5054,338.8234,251.9869,107.9185,0,U,32953,999,82301,-.97929E-4,-.4E-7,0
KKS-1 (KISEKI),2009-002H,2026-07-13T20:06:17.163360,14.83187360,.000731,98.1175,117.7022,193.6951,166.4065,0,U,33499,999,94014,.88322E-4,.665E-5,0
SWISSCUBE,2009-051B,2026-07-13T17:08:24.847008,14.62529232,.0007797,98.4010,103.0624,122.9504,237.2447,0,U,35932,999,89303,.10573E-3,.487E-5,0
BEESAT-1,2009-051C,2026-07-13T17:41:58.432704,14.61760532,.0006039,98.3937,102.6657,133.6539,226.5163,0,U,35933,999,89306,.88826E-4,.394E-5,0
ITUPSAT1,2009-051E,2026-07-13T16:23:43.334016,14.60477451,.0007976,98.4020,101.7741,147.4965,212.6727,0,U,35935,999,89260,.85196E-4,.364E-5,0
XIWANG-1 (HOPE-1),2009-072B,2026-07-13T20:14:44.653632,13.16440662,.0007513,100.4029,148.2513,167.7258,192.4039,0,U,36122,999,79651,.68379E-3,.217E-5,0
O/OREOS (USA 219),2010-062C,2026-07-13T20:22:40.710720,14.93848747,.0013908,71.9696,19.9384,7.7163,352.4219,0,U,37224,999,12062,.11239E-3,.1132E-4,0
JUGNU,2011-058B,2026-07-13T01:27:49.154112,14.13783158,.0018498,19.9592,151.2304,2.9049,74.5783,0,U,37839,999,76269,.42398519E-4,.348E-5,0
SRMSAT,2011-058D,2026-07-13T10:56:57.365664,14.11580880,.00118107,19.9713,260.4725,132.1672,338.6137,0,U,37841,999,76153,.42888582E-4,.344E-5,0
STRAND-1,2013-009E,2026-07-13T17:18:15.840288,14.37178346,.0009339,98.3932,14.3039,145.1718,215.0081,0,U,39090,999,70087,.6033E-4,.137E-5,0
ZACUBE-1 (TSHEPISOSAT),2013-066B,2026-07-13T20:50:21.221088,15.01325493,.0043946,97.8009,157.3372,159.4655,200.8348,0,U,39417,999,68473,.10671E-3,.1337E-4,0
GOMX-1,2013-066Q,2026-07-13T19:25:36.252768,14.69541249,.0128418,97.6473,33.5927,352.6714,7.2612,0,U,39430,999,67382,.13575E-3,.861E-5,0
